[{"OBJECT_NAME":"JILIN-1 08","OBJECT_ID":"2018-008F","EPOCH":"2026-03-09T22:37:53.184288","MEAN_MOTION":15.32205976,"ECCENTRICITY":0.00081321,"INCLINATION":97.1902,"RA_OF_ASC_NODE":90.9961,"ARG_OF_PERICENTER":76.0646,"MEAN_ANOMALY":284.15,"EPHEMERIS_TYPE":0,"CLASSIFICATION_TYPE":"U","NORAD_CAT_ID":43160,"ELEMENT_SET_NO":999,"REV_AT_EPOCH":44974,"BSTAR":0.00036689195,"MEAN_MOTION_DOT":0.00011349,"MEAN_MOTION_DDOT":0},{"OBJECT_NAME":"STARLINK-34591","OBJECT_ID":"2025-144L","EPOCH":"2026-03-09T14:54:15.305472","MEAN_MOTION":15.3017624,"ECCENTRICITY":0.0001347,"INCLINATION":53.1602,"RA_OF_ASC_NODE":181.2038,"ARG_OF_PERICENTER":69.0087,"MEAN_ANOMALY":291.1057,"EPHEMERIS_TYPE":0,"CLASSIFICATION_TYPE":"U","NORAD_CAT_ID":64734,"ELEMENT_SET_NO":999,"REV_AT_EPOCH":3968,"BSTAR":0.0010016,"MEAN_MOTION_DOT":0.00029402,"MEAN_MOTION_DDOT":0}]
